[{"OBJECT_NAME":"STARLINK-5197","OBJECT_ID":"2022-136AY","EPOCH":"2026-03-09T22:33:41.215968","MEAN_MOTION":15.08860993,"ECCENTRICITY":0.00010704,"INCLINATION":53.2188,"RA_OF_ASC_NODE":307.9268,"ARG_OF_PERICENTER":118.609,"MEAN_ANOMALY":241.501,"EPHEMERIS_TYPE":0,"CLASSIFICATION_TYPE":"U","NORAD_CAT_ID":54097,"ELEMENT_SET_NO":999,"REV_AT_EPOCH":18737,"BSTAR":1.7849578e-5,"MEAN_MOTION_DOT":-4.0e-8,"MEAN_MOTION_DDOT":0},{"OBJECT_NAME":"CZ-6A DEB","OBJECT_ID":"2022-151RK","EPOCH":"2026-03-09T04:16:52.342176","MEAN_MOTION":15.00981633,"ECCENTRICITY":0.00383954,"INCLINATION":98.6273,"RA_OF_ASC_NODE":143.4522,"ARG_OF_PERICENTER":188.2396,"MEAN_ANOMALY":171.8199,"EPHEMERIS_TYPE":0,"CLASSIFICATION_TYPE":"U","NORAD_CAT_ID":54922,"ELEMENT_SET_NO":999,"REV_AT_EPOCH":17321,"BSTAR":0.0056092635,"MEAN_MOTION_DOT":0.00073321,"MEAN_MOTION_DDOT":0}]
